start=new Date('2023-01-31T00:00:00.000Z').valueOf();
sats=[{"INCLINATION":"53.0539","CENTER_NAME":"EARTH","LAUNCH_DATE":"2020-04-22","PERIAPSIS":"546.260","MEAN_ANOMALY":"265.6217","SEMIMAJOR_AXIS":"6925.352","ELEMENT_SET_NO":"999","OBJECT_TYPE":"PAYLOAD","SITE":"AFETR","TLE_LINE1":"1 45553U 20025Y   23030.51379130  .00000557  00000-0  56258-4 0  9995","RCS_SIZE":"LARGE","RA_OF_ASC_NODE":"138.1374","TIME_SYSTEM":"UTC","APOAPSIS":"548.175","NORAD_CAT_ID":"45553","EPHEMERIS_TYPE":"0","FILE":"3765576","MEAN_MOTION":"15.06398725","REV_AT_EPOCH":"15313","GP_ID":"223992470","ARG_OF_PERICENTER":"94.4930","BSTAR":"0.00005625800000","MEAN_MOTION_DOT":"0.00000557","COUNTRY_CODE":"US","MEAN_ELEMENT_THEORY":"SGP4","MEAN_MOTION_DDOT":"0.0000000000000","OBJECT_NAME":"STARLINK-1323","DECAY_DATE":null,"REF_FRAME":"TEME","EPOCH":"2023-01-30T12:19:51.568320","OBJECT_ID":"2020-025Y","CLASSIFICATION_TYPE":"U","ECCENTRICITY":"0.00013830","PERIOD":"95.592","TLE_LINE2":"2 45553  53.0539 138.1374 0001383  94.4930 265.6217 15.06398725153138"},{"OBJECT_TYPE":"PAYLOAD","SITE":"AFETR","ELEMENT_SET_NO":"999","TIME_SYSTEM":"UTC","RCS_SIZE":"LARGE","RA_OF_ASC_NODE":"138.1671","NORAD_CAT_ID":"45554","APOAPSIS":"548.084","TLE_LINE1":"1 45554U 20025Z   23030.50547335  .00000510  00000-0  53145-4 0  9990","MEAN_MOTION":"15.06394967","REV_AT_EPOCH":"15442","GP_ID":"223993720","ARG_OF_PERICENTER":"80.3394","EPHEMERIS_TYPE":"0","FILE":"3765576","INCLINATION":"53.0537","PERIAPSIS":"546.374","LAUNCH_DATE":"2020-04-22","CENTER_NAME":"EARTH","MEAN_ANOMALY":"279.7735","SEMIMAJOR_AXIS":"6925.364","ECCENTRICITY":"0.00012350","CLASSIFICATION_TYPE":"U","PERIOD":"95.592","TLE_LINE2":"2 45554  53.0537 138.1671 0001235  80.3394 279.7735 15.06394967154429","BSTAR":"0.00005314500000","MEAN_MOTION_DOT":"0.00000510","COUNTRY_CODE":"US","MEAN_MOTION_DDOT":"0.0000000000000","MEAN_ELEMENT_THEORY":"SGP4","OBJECT_NAME":"STARLINK-1325","REF_FRAME":"TEME","EPOCH":"2023-01-30T12:07:52.897440","OBJECT_ID":"2020-025Z","DECAY_DATE":null},{"BSTAR":"0.00044807000000","MEAN_MOTION_DOT":"0.00006399","COUNTRY_CODE":"US","OBJECT_NAME":"STARLINK-1327","MEAN_MOTION_DDOT":"0.0000000000000","MEAN_ELEMENT_THEORY":"SGP4","DECAY_DATE":null,"REF_FRAME":"TEME","OBJECT_ID":"2020-025AA","EPOCH":"2023-01-30T14:27:14.711904","CLASSIFICATION_TYPE":"U","ECCENTRICITY":"0.00012980","PERIOD":"95.592","TLE_LINE2":"2 45555  53.0517 137.7363 0001298 105.8355 254.2777 15.06401441154431","INCLINATION":"53.0517","CENTER_NAME":"EARTH","PERIAPSIS":"546.310","LAUNCH_DATE":"2020-04-22","MEAN_ANOMALY":"254.2777","SEMIMAJOR_AXIS":"6925.344","ELEMENT_SET_NO":"999","OBJECT_TYPE":"PAYLOAD","SITE":"AFETR","TLE_LINE1":"1 45555U 20025AA  23030.60225361  .00006399  00000-0  44807-3 0  9999","RCS_SIZE":"LARGE","RA_OF_ASC_NODE":"137.7363","TIME_SYSTEM":"UTC","NORAD_CAT_ID":"45555","APOAPSIS":"548.108","EPHEMERIS_TYPE":"0","FILE":"3765849","MEAN_MOTION":"15.06401441","REV_AT_EPOCH":"15443","GP_ID":"224051917","ARG_OF_PERICENTER":"105.8355"},{"REF_FRAME":"TEME","OBJECT_ID":"2020-025AB","EPOCH":"2023-01-30T12:14:33.050400","DECAY_DATE":null,"COUNTRY_CODE":"US","OBJECT_NAME":"STARLINK-1334","MEAN_MOTION_DDOT":"0.0000000000000","MEAN_ELEMENT_THEORY":"SGP4","BSTAR":"-0.00002542200000","MEAN_MOTION_DOT":"-0.00000660","TLE_LINE2":"2 45556  53.0535 138.1471 0001316  80.3762 279.7376 15.06408176153828","PERIOD":"95.592","ECCENTRICITY":"0.00013160","CLASSIFICATION_TYPE":"U","SEMIMAJOR_AXIS":"6925.323","MEAN_ANOMALY":"279.7376","PERIAPSIS":"546.277","LAUNCH_DATE":"2020-04-22","CENTER_NAME":"EARTH","INCLINATION":"53.0535","MEAN_MOTION":"15.06408176","ARG_OF_PERICENTER":"80.3762","GP_ID":"224027583","REV_AT_EPOCH":"15382","FILE":"3765649","EPHEMERIS_TYPE":"0","TIME_SYSTEM":"UTC","RCS_SIZE":"LARGE","RA_OF_ASC_NODE":"138.1471","NORAD_CAT_ID":"45556","APOAPSIS":"548.100","TLE_LINE1":"1 45556U 20025AB  23030.51010475 -.00000660  00000-0 -25422-4 0  9998","OBJECT_TYPE":"PAYLOAD","SITE":"AFETR","ELEMENT_SET_NO":"999"},{"SEMIMAJOR_AXIS":"6925.363","MEAN_ANOMALY":"279.6595","PERIAPSIS":"546.295","LAUNCH_DATE":"2020-04-22","CENTER_NAME":"EARTH","INCLINATION":"53.0547","REV_AT_EPOCH":"15441","GP_ID":"223992971","ARG_OF_PERICENTER":"80.4546","MEAN_MOTION":"15.06395449","EPHEMERIS_TYPE":"0","FILE":"3765576","APOAPSIS":"548.160","NORAD_CAT_ID":"45557","RCS_SIZE":"LARGE","RA_OF_ASC_NODE":"138.4085","TIME_SYSTEM":"UTC","TLE_LINE1":"1 45557U 20025AC  23030.45113380  .00001626  00000-0  12802-3 0  9999","SITE":"AFETR","OBJECT_TYPE":"PAYLOAD","ELEMENT_SET_NO":"999","EPOCH":"2023-01-30T10:49:37.960320","OBJECT_ID":"2020-025AC","REF_FRAME":"TEME","DECAY_DATE":null,"MEAN_MOTION_DDOT":"0.0000000000000","OBJECT_NAME":"STARLINK-1336","MEAN_ELEMENT_THEORY":"SGP4","COUNTRY_CODE":"US","MEAN_MOTION_DOT":"0.00001626","BSTAR":"0.00012802000000","TLE_LINE2":"2 45557  53.0547 138.4085 0001346  80.4546 279.6595 15.06395449154416","PERIOD":"95.592","ECCENTRICITY":"0.00013460","CLASSIFICATION_TYPE":"U"},{"EPHEMERIS_TYPE":"0","FILE":"3765849","MEAN_MOTION":"15.06398669","GP_ID":"224051168","REV_AT_EPOCH":"15443","ARG_OF_PERICENTER":"92.1260","TLE_LINE1":"1 45558U 20025AD  23030.61699644  .00000985  00000-0  85014-4 0  9993","RCS_SIZE":"LARGE","RA_OF_ASC_NODE":"137.6713","TIME_SYSTEM":"UTC","NORAD_CAT_ID":"45558","APOAPSIS":"547.912","ELEMENT_SET_NO":"999","OBJECT_TYPE":"PAYLOAD","SITE":"AFETR","SEMIMAJOR_AXIS":"6925.353","MEAN_ANOMALY":"267.9844","CENTER_NAME":"EARTH","LAUNCH_DATE":"2020-04-22","PERIAPSIS":"546.523","INCLINATION":"53.0535","TLE_LINE2":"2 45558  53.0535 137.6713 0001003  92.1260 267.9844 15.06398669154432","PERIOD":"95.592","CLASSIFICATION_TYPE":"U","ECCENTRICITY":"0.00010030","DECAY_DATE":null,"REF_FRAME":"TEME","OBJECT_ID":"2020-025AD","EPOCH":"2023-01-30T14:48:28.492416","COUNTRY_CODE":"US","MEAN_ELEMENT_THEORY":"SGP4","MEAN_MOTION_DDOT":"0.0000000000000","OBJECT_NAME":"STARLINK-1342","BSTAR":"0.00008501400000","MEAN_MOTION_DOT":"0.00000985"},{"BSTAR":"0.00006379500000","MEAN_MOTION_DOT":"0.00000669","COUNTRY_CODE":"US","MEAN_ELEMENT_THEORY":"SGP4","MEAN_MOTION_DDOT":"0.0000000000000","OBJECT_NAME":"STARLINK-1344","REF_FRAME":"TEME","EPOCH":"2023-01-30T15:34:52.440384","OBJECT_ID":"2020-025AE","DECAY_DATE":null,"ECCENTRICITY":"0.00013110","CLASSIFICATION_TYPE":"U","PERIOD":"95.592","TLE_LINE2":"2 45559  53.0567 137.4715 0001311  85.6637 274.4501 15.06402351154443","INCLINATION":"53.0567","PERIAPSIS":"546.298","LAUNCH_DATE":"2020-04-22","CENTER_NAME":"EARTH","MEAN_ANOMALY":"274.4501","SEMIMAJOR_AXIS":"6925.341","OBJECT_TYPE":"PAYLOAD","SITE":"AFETR","ELEMENT_SET_NO":"999","RCS_SIZE":"LARGE","TIME_SYSTEM":"UTC","RA_OF_ASC_NODE":"137.4715","APOAPSIS":"548.114","NORAD_CAT_ID":"45559","TLE_LINE1":"1 45559U 20025AE  23030.64921806  .00000669  00000-0  63795-4 0  9996","MEAN_MOTION":"15.06402351","REV_AT_EPOCH":"15444","GP_ID":"224051418","ARG_OF_PERICENTER":"85.6637","FILE":"3765849","EPHEMERIS_TYPE":"0"},{"ELEMENT_SET_NO":"999","SITE":"AFETR","OBJECT_TYPE":"PAYLOAD","FILE":"3765849","EPHEMERIS_TYPE":"0","GP_ID":"224050168","ARG_OF_PERICENTER":"101.7525","REV_AT_EPOCH":"15458","MEAN_MOTION":"15.06402466","TLE_LINE1":"1 45560U 20025AF  23030.63908585  .00000977  00000-0  84436-4 0  9993","APOAPSIS":"548.080","NORAD_CAT_ID":"45560","RCS_SIZE":"LARGE","RA_OF_ASC_NODE":"127.5661","TIME_SYSTEM":"UTC","CENTER_NAME":"EARTH","LAUNCH_DATE":"2020-04-22","PERIAPSIS":"546.332","INCLINATION":"53.0533","SEMIMAJOR_AXIS":"6925.341","MEAN_ANOMALY":"258.3606","CLASSIFICATION_TYPE":"U","ECCENTRICITY":"0.00012620","TLE_LINE2":"2 45560  53.0533 127.5661 0001262 101.7525 258.3606 15.06402466154588","PERIOD":"95.592","OBJECT_NAME":"STARLINK-1346","MEAN_MOTION_DDOT":"0.0000000000000","MEAN_ELEMENT_THEORY":"SGP4","COUNTRY_CODE":"US","MEAN_MOTION_DOT":"0.00000977","BSTAR":"0.00008443600000","DECAY_DATE":null,"OBJECT_ID":"2020-025AF","EPOCH":"2023-01-30T15:20:17.017440","REF_FRAME":"TEME"},{"SEMIMAJOR_AXIS":"6857.240","MEAN_ANOMALY":"243.4523","CENTER_NAME":"EARTH","PERIAPSIS":"476.398","LAUNCH_DATE":"2020-04-22","INCLINATION":"53.0665","EPHEMERIS_TYPE":"0","FILE":"3765576","REV_AT_EPOCH":"15595","GP_ID":"223992471","ARG_OF_PERICENTER":"116.6881","MEAN_MOTION":"15.28898790","TLE_LINE1":"1 45561U 20025AG  23030.30413334  .00053215  00000-0  18689-2 0  9999","NORAD_CAT_ID":"45561","APOAPSIS":"481.812","TIME_SYSTEM":"UTC","RCS_SIZE":"LARGE","RA_OF_ASC_NODE":"28.4802","ELEMENT_SET_NO":"999","SITE":"AFETR","OBJECT_TYPE":"PAYLOAD","DECAY_DATE":null,"OBJECT_ID":"2020-025AG","EPOCH":"2023-01-30T07:17:57.120576","REF_FRAME":"TEME","MEAN_MOTION_DDOT":"0.0000000000000","OBJECT_NAME":"STARLINK-1348","MEAN_ELEMENT_THEORY":"SGP4","COUNTRY_CODE":"US","MEAN_MOTION_DOT":"0.00053215","BSTAR":"0.00186890000000","TLE_LINE2":"2 45561  53.0665  28.4802 0003947 116.6881 243.4523 15.28898790155951","PERIOD":"94.185","CLASSIFICATION_TYPE":"U","ECCENTRICITY":"0.00039470"},{"SITE":"AFETR","OBJECT_TYPE":"PAYLOAD","ELEMENT_SET_NO":"999","APOAPSIS":"548.019","NORAD_CAT_ID":"45562","RCS_SIZE":"LARGE","RA_OF_ASC_NODE":"138.3586","TIME_SYSTEM":"UTC","TLE_LINE1":"1 45562U 20025AH  23030.46219069  .00000025  00000-0  20601-4 0  9996","GP_ID":"223993721","REV_AT_EPOCH":"15441","ARG_OF_PERICENTER":"96.0679","MEAN_MOTION":"15.06393209","FILE":"3765576","EPHEMERIS_TYPE":"0","INCLINATION":"53.0559","PERIAPSIS":"546.450","LAUNCH_DATE":"2020-04-22","CENTER_NAME":"EARTH","MEAN_ANOMALY":"264.0439","SEMIMAJOR_AXIS":"6925.369","ECCENTRICITY":"0.00011330","CLASSIFICATION_TYPE":"U","PERIOD":"95.593","TLE_LINE2":"2 45562  53.0559 138.3586 0001133  96.0679 264.0439 15.06393209154411","MEAN_MOTION_DOT":"0.00000025","BSTAR":"0.00002060100000","MEAN_ELEMENT_THEORY":"SGP4","MEAN_MOTION_DDOT":"0.0000000000000","OBJECT_NAME":"STARLINK-1354","COUNTRY_CODE":"US","OBJECT_ID":"2020-025AH","EPOCH":"2023-01-30T11:05:33.275616","REF_FRAME":"TEME","DECAY_DATE":null}];
